address,name,lat,lng,reward_scale_correct
11Q7SKvZydQKFm9YUxiy8j5SFYhaEn33HkeFvfT57akrG36C1cG,oblong-scarlet-monkey,41.72039436801458,-87.7201867567431,None
112oE8HZQyGnq39n6nFK7UidXMpSKUbueq1dngT3yGzoCwaZmD4z,radiant-chrome-chameleon,41.97135720085456,-87.74985320942758,None
112GghcNbYBzhrABAABQBbJqEqqcHozZ8jGbk6BnDYYCC7epwsma,merry-neon-lizard,41.87363954427908,-87.62340571693434,None
115RG8khzrzZns2EN8kE8YtQtjkEDYXDkpQwQYSB18YLmL7jGyX,square-aegean-barbel,42.01550918612074,-87.81898895410866,None
11775PiFaCBXjEmM28pHvd3x2jSnwZDEDD5iHiGRtcfCE9jfi86,cheerful-shamrock-loris,42.049753715596964,-87.82737972712347,None
11u37k4ratuL5GFKKgx1TUmN4MWAbmh6AwvP53Xvq9FGGwg7Bkb,slow-rainbow-quail,41.7173212874932,-88.05800091122607,None
11egGvo38GF1CgbcpQvkEGwETA6YNEfgBmLcxz7RWA4RLs71yMV,genuine-tangelo-dragonfly,41.92176517042006,-87.80969315282381,None
112HkPcWiVNbvb8igrtkLnrYqHxomXiUphuDoUcKjBa2cwVbag9T,recumbent-orchid-mink,41.93159337715275,-87.85031037541405,None
11DnZ4hYCP38Qacp5t7NkEVRZjJA5NLnoKeetHQNr4fyef6d7si,passive-hotpink-mockingbird,41.889701529112756,-87.61135656685636,0.4578704833984375
112SmyekKdAE5mMPVby7hMAYPbyuMLJ8A9aNcguGQGXuKTg4Gg8x,decent-punch-gibbon,41.90218559242244,-87.62012879338717,0.26068115234375
112ByHLX57pRxjg3chuGxiVhFSfdRMfViqWuq87RjHS3HeZWivGK,joyful-menthol-bobcat,41.882956482041635,-87.61962430884778,0.45703125
112FJqfkDFbFyZbnyjV3Ua45j8wdXwvBBhmfpvrnW3heHdJGW3SL,wide-fern-liger,41.883811077148714,-87.6511639748593,0.042694091796875
1128oa6dfms4wvsQXTeqkrUCTkd6upLRtmc4wQ6Gm4uhCM5NutNw,rural-chili-hippo,41.90031444280671,-88.05269980640837,1.0
11DC8cd6VXWFb8A9zZSztwj8grZzuQXKQhPA5s7yJ2CcrQ7TSFt,blunt-sandstone-boar,41.626597161950606,-87.82944116887838,1.0
112qaCSfJCzDYjtZqS3wADvtqVuWGnhxR9KYwdrvaf54wnNNoKKM,immense-peach-viper,41.896692094655144,-87.65008240920122,0.23480224609375
11rrgxTZcQ15jMcMuFGUUGR6BU13ULRQJaySDNut3hsVmmcQpdw,happy-ultraviolet-dove,41.89013979972407,-87.67320259708201,0.45703125
112dfBdRVCkqBCcZzLhc9ame1nts1LUVjzQ1PnHY15FgmfKicE1h,main-caramel-sawfish,41.88129635631693,-87.66474226161661,0.3522186279296875
112hDpzXVapuGYQn9SMfcSFHMkRewEY85mQqz17STgysqPTgJoJL,upbeat-cobalt-okapi,42.017281555748696,-88.06997517240889,1.0
1125pxFBfQhukw3fBZn2yMRfGzdcnpj7EyDktPpFAas46MegVppy,sunny-caramel-millipede,41.81165606665585,-87.99732763186192,1.0
112ru1jrinGC3FBV6VZtELiBx2gBj1PtRU1hoXo7FKds814kC7LC,refined-daisy-parakeet,41.989082753846226,-87.73511692347266,0.30413818359375
11EEZHQLfcxhQjPbcm2TrhCNTquLKpeQLHZ4UT4jqxhZWHGSCgE,virtual-coconut-copperhead,41.8928837139251,-87.64151432654891,0.0639190673828125
112HMJPEytbYJQFQg9oupMfRrwFbUkJhoLQ7dhE3EDMeda5sHcpU,abundant-rusty-manatee,41.966871466963816,-87.6729752898485,0.456207275390625
1122V8xz7QeomEJsx7fkQxru49RCZ5vp4JeGwnyNQMaxHk2rHUGJ,skinny-navy-elephant,41.87772490976641,-87.64291525199299,0.075836181640625
11G7BffjmiuhH5zLbTVPpuvf22ZL3ajhMacMwK6MXzTRq6oFUx6,prehistoric-aqua-alligator,41.84565823287495,-87.79357335910998,0.45703125
11rs2BU1fuiaBJ9Humkoy4mRwQxUzevRA1AcQiwC4Yv5bSmWgE9,docile-ash-caterpillar,41.89340257009891,-87.63612519223523,0.0362091064453125
112YPUr6hBKYzXkAD29n8ctQvUbukjniQbZbyhoSiXSzduKv5q1M,powerful-eggshell-alligator,41.91302371386455,-87.6885872121887,0.365631103515625
112Qfarnv31wf1tcko1kegEU75H7VM2UDBCaA352mPoPRDcE69N1,ripe-flaxen-crow,42.22516718666364,-87.86077565184463,1.0
112mR37u8TyusBQWtoFebmF68if1587be5HVQLE2wm36wESMRSTP,sneaky-chili-canary,41.82477141926699,-88.06311061300205,1.0
112YDNDMcW3NSwxQtNvk1dQvfAwHtKWRyLXeHK4DUSXNnAagKqmQ,clumsy-pearl-mouse,42.03651611220234,-87.75845591696725,0.456207275390625
11EbtCZJmRKYMupxkgJAPc7vzEahThuAjRKutPhtRdwx6fJqAsP,urban-satin-goblin,41.78664644399005,-87.66983318879151,0.4578704833984375
1124uwNNoZ1p59RRs78K9UNjb73a2Hd5pyuyJYuc6L6bCzqdXkLT,mini-viridian-moth,41.90012282170187,-87.68150837883955,0.366302490234375
11yoEDBBXUidEGZ3iZTCsxzhZc13vuFY7TNyLsyVGxHz2t8HjYJ,dandy-clear-manatee,41.9358287914295,-87.63943498412199,0.152618408203125
112ghehUrJxCGH5krpmXrDCuX2WmE9CQeYnhgWciecSUMA4XZZWx,furry-chrome-dragonfly,41.472964929256484,-87.88787996743376,1.0
11GKZiy6Ki6DHe7R4EZUr3aBisfMmgG9GsEsVsqTjdFzRF86qSy,tangy-mint-bison,41.75490424428698,-87.96076880695576,1.0
112uM6vCB6tne2EWVwngnEyu4BGffXQUpwYuAyRc8qWbEKbDzPQg,spicy-steel-baboon,41.921587532320004,-87.68917666324327,0.3046875
11HFNxxKp2DPUZ5iRyFwksmhmdfjwzJiHVqYh8GXcbNYUEwV2Zo,recumbent-inky-reindeer,41.714309072789966,-87.71655056843527,1.0
11Vz8ZDAHAPWnty5m7N6tkAEbyiaxzeiTs2RLYn3GUWnWF1Zkee,jovial-corduroy-crab,42.06815696022279,-87.98827490244854,1.0
11238DUBjX6Q5aG3cuXg7pcEcPaFM8TRbPgpqH5mTawgvYdzoFhm,brave-gingerbread-snake,41.88677052221609,-87.64248333372099,0.085235595703125
112kWux8Xq2YL8aR5BonehvDTkLaJhHEHqmCVKvV92Vhs7Kwfxkp,clumsy-charcoal-monkey,41.90295034758904,-87.68088091152907,0.1824798583984375
112tLiwiJeo9sQUYoiGywDqCLPhHWRXLz6U1vXNauP9C81wTvjNp,immense-chrome-liger,41.8980408717642,-87.63796043272184,0.145355224609375
11aDi5EAR3UDeVBNX3xwxjwHRKcvybCUE4vAqb8uskjbgAazq4L,trendy-chrome-jellyfish,41.85803828182147,-87.6515567540132,0.45703125
1126QVLbPcZMAHdG2gTwSSCQrVWg184rrzBiDTKVGVDatp2CAXk9,flaky-raisin-elephant,41.793923372877586,-87.62484971396556,0.2281036376953125
11x5vpc21xc8G1hkkfg3oXEmBYZfhw1dPnGFfmebq1vQVCZdWK1,bald-stone-pig,41.7940975403345,-87.62517915249155,0.228515625
112Zo9bihR9xPxXrgvvogNJPxAgCBBwmqsCseg7NpTV5UdNVRbd4,basic-cinnabar-sidewinder,41.89114020542809,-87.6223802992364,0.1632232666015625
11NsTL2YSCK1SGN2T1VaYnV65sdwK7P63Zw6NUBpuaNq5xqht8i,clumsy-burgundy-rattlesnake,41.88518030153198,-87.64719357956076,0.0640411376953125
11EoeUedSii1ML6vMkXsLZuaGCWjnd2EWnEbJk3md43ssVqG9mT,bumpy-felt-aardvark,42.04423016561539,-87.9263083969419,1.0
11FZXpSWdTnRgm5nAzoXiuxf5YvPaN2bGR8aHs9sfi6aDmN4ChX,tame-boysenberry-iguana,41.9532350826391,-87.64517259423044,0.152618408203125
1122rFaz8YVHHChN1iQs2L5bE31LQScJkHRd3MmB4bemQghjpHQw,raspy-mossy-hornet,41.92191601677577,-87.70236980311735,0.365631103515625
112heEVAZ85AoXk8fnxdctYMzE6S39LsLJAgGDwr5fMwQCtAnC8c,shallow-violet-flamingo,41.92481305382268,-87.70728949552785,0.2616424560546875
11G3GMTgvuLq7rgrETAfZy9r1P78MBkuAxqjFhVSg6ytK9mpmiC,acrobatic-carmine-alligator,42.40180635172264,-88.21347859394754,1.0
11XZKkDtKTYvEmAwmRbvSrFgFyRz8wozt7x8KqPnRe1Qid9t3p2,tart-peanut-raccoon,41.96265255070473,-87.65510235261253,0.228515625
112wWD8KezNg7SP1GqcXZj66j2swXrQH6xLH2t2LHY1d3cJWxJNp,hidden-stone-swan,42.09521319187832,-87.84316176076746,1.0
119LqFRpc5qqpcqvdo4xkGQyCWdU1rLCrkAj9WXpngRvnqrfSKN,magnificent-admiral-perch,42.050317580472985,-87.68711652733967,0.380859375
11mysoiJnbEwt5YQAu6BhFH14qySip1AvLzt37ciXoaRidZjNYo,zany-black-raccoon,41.63828352757067,-88.14461594790126,1.0
112dxTF2RGJtmuuhL3hzeeicQkN8sJuvMMjbnn8cRNj1NBGXf1BB,ambitious-glossy-halibut,41.93401579689246,-87.6941982143293,0.45703125
11EYnb5sgqBZqt1YVhV6Uc53ssXqxoC6iEw4cAhxeugwH6Xnr3Q,nutty-clay-squirrel,41.63296290779867,-88.1247720367482,1.0
112QQcjLySLYCGoLV2oWSmVdZF2qfLEXZxzF66xbXTrgcjUjH9ek,cool-metal-hamster,41.96076136842603,-87.70434422238583,0.456207275390625
1114WiKWBzhihJgt8bks4HEY4j5gP2BZ2GeXcE3cyPf9E4ZiBiA,eager-cinnamon-bull,41.89570258299656,-87.63604106684177,0.072540283203125
11tRKDE3joScdyvawW4qfQbw8EPRYXnTMWGtMRCZPiHBoahJUWm,digital-vanilla-dinosaur,41.953004352184855,-88.11174275449193,1.0
11UDLwYoqEbknHDeZFwQ26Qg6Q8YGVFjBnVqohB51mXEyj47pMT,orbiting-chiffon-unicorn,41.95710753179619,-87.78881865352608,0.4578704833984375
112Pmv55z26hmvU1ThPRyzoCig9EJsrGtPM2Xm7QRhTYY3YYwbaM,sneaky-cerulean-pig,41.963758747277964,-87.7183635435188,0.4578704833984375
119wW3H1QvntnKUkKszT6YgsQ3BiGYm4WR7kDMuxZi1TfJKeReW,tangy-pine-mole,41.97607600418174,-87.65986411814265,0.1142578125
112a6LhvtNb9re3uhgzNj2jx3z43yK5jprv1xW3LRM5xdKM6VfJV,howling-licorice-coyote,41.93918199006163,-87.72103466065737,0.4578704833984375
112RaHqPmRSjGP2Wwub34spPyWVNGKi5xP3fZQdkhNyScBQ383cE,creamy-watermelon-mantis,41.84111807195144,-87.62723433858629,0.266021728515625
111GXEDDbQLJomZFVnpq5h3fPQoTug4Fx9JX76S7XeYQozsHdqc,deep-flint-piranha,41.96929208313101,-87.66305473549089,0.228515625
11UY5xMbi1HTs8rW3Kh6TubnAtqpLPWSDZyYuJghDLg1hVg7x4K,dry-raisin-kitten,41.63398600673129,-88.13484460310984,1.0
11dQt2hdecmHZmYcZyz6s6fW9Je2deLt4oJbwkuX6AQTQmQ1bRN,bouncy-coal-yeti,41.89394524757474,-87.65318168193264,0.1761016845703125
11zj22wjQtZwKTPsokrEpDqz8rfcA5UNYP8DH7qwiMfHXW4gAgy,expert-brown-nuthatch,42.084725437707135,-87.9582442397138,1.0
11jjvjyruMM9mYRzAjG4c4ov8gueQ9YecNbfDAMVHfUbd5ATBXk,decent-candy-bison,41.63862098218389,-88.12709599849528,1.0
11rirB96LWN1ju83VZajb37GmYPbE9FiGwFLZQvrjZuiMu8jhEY,flaky-mercurial-mockingbird,41.8789452560138,-88.13142048279013,1.0
11243SFMUZeSjaqFbmt5P9hbdrCon3UjG6qRLeTVNLHo8ocS4CgT,loud-pebble-yeti,41.86457597486676,-88.08540769200904,1.0
11Sb8E4SfwN2GYUArznyeCaHb5sYfU3FXaiN2Uk9EUR3T8xjVE8,cuddly-ginger-whale,41.86857123283583,-88.09986310013623,1.0
112gPjY2x4ECpT7o4EKZTy4zuz2HxsCXRt282kzxJeUwxKP4HCtf,dizzy-emerald-cod,41.854173306737835,-88.09653581401072,1.0
115QwjHT3uVN4oV7EMGKehT9V1y1nePgFkS677Vvw7K1qnCPdfy,fresh-ash-terrier,42.00139232271815,-87.86468629370808,1.0
11239MWDsSia9Y2qWxUMm9REQG7WL9XEiCqpndCZMCPByVto6zbk,immense-malachite-copperhead,41.88979037771912,-88.14524020817757,1.0
11Jsv44WQwtb78JvJ7gTf8jDPRhnZDZ6qH49dntxsckEFDiQY1A,original-mahogany-mantis,41.643407239150285,-88.12929768184202,1.0
11C1Fi6pXuH4UDHYKX7uCv3ztZrv4QCJaiHz9Dr3dtHF4JEaCDa,straight-plum-otter,41.87306449845249,-88.10847917941825,1.0
11yAziRmWoGMgfD8w5mK1dCT53nEKi1mfZoe1rsw7kSsmuxp2y6,genuine-linen-grasshopper,41.86896604789953,-88.1093611454288,0.5
112WrfNuMMoDBH8Fa8qtDfBp2GWNN6QM7mx7SMLdhXkwedd8USWJ,fun-cream-pheasant,41.7027302232201,-87.71578752943766,1.0
112tCrtjvgf9bB5HAwqPXHSQ1pGm2mmsvpyW3fFfRhW7NQGEybXQ,bouncy-lead-swift,41.98348581825688,-87.69387110175583,0.4553680419921875
11256QgwrFoW8zqfReBPp95EAPyJZMjCH8JYkre81dekkMkDPv9R,uneven-emerald-hedgehog,41.99800239337769,-87.68038023347701,0.45703125
112CxmQ4PiFrEkgv9MaDdgQw6p4CvbHd7n44wrpSjKTKNmB9VStD,lone-porcelain-barbel,42.044248697172506,-87.82232023106562,0.4578704833984375
112tcdSfhhdU9fXfLyrBhRdN2tZqbxRiLfMhtR4b73Vj6cW9nS1A,lucky-opaque-elephant,41.93809281852299,-87.74896735312936,0.456207275390625
11j79KMChpCCfEvBFZR8jDGYbAh62Hsyp4LagiVv2TbpqowBZpn,tall-oily-sloth,41.848500487008465,-87.69253805559755,0.456207275390625
11yMxdcz5hKEQPfH9ZfyPRd9RyNiH2B4UzUfwXFHZV6gdNBd6X,oblong-lilac-lion,41.84760247154517,-87.63353054355284,0.45703125
1121TFWnx6Nvp8J7e79mQgUuPVVV4gcNcDfeTeDM6PE6zxeeeYL8,perfect-powder-bear,41.70548128347024,-87.70964507473322,1.0
119SqtVaLwWoyeTdiQLg8ZpvvGrKjZWGGtyUvSQi9eTfUT3UN6F,swift-velvet-lobster,41.64127695516166,-88.13449742863364,1.0
11PsY7G1r6MhyUKnBeojjqTKLSyiN5q2pH5NRBesj9ceHRpz6JJ,skinny-coal-barbel,41.944777173037586,-87.76555064047776,0.456207275390625
112wB4EDrE1t8EbpeNYWBbA9UvxcPtArK1de8ZciEj4dC4nMG9we,custom-vermilion-mammoth,42.04715723928983,-87.69371706171945,0.380859375
112njYiw6Raz6gUjzCRYmid8rGjhboZHX8Zs16eZfGbiVhDqfeBS,witty-foggy-bee,42.030935016154054,-87.69003531380022,0.4578704833984375
112spqhF7u5t8t4yf9cZU3VAZd7L9T3KotgraUuwNYEpeBFR3Bp1,plain-turquoise-mole,41.82689915244168,-87.67841366545156,0.456207275390625
112sDT3spi2AxeubqDZyTbke5ap36MewEfhtFTNRK3nSKHVGYWy1,sticky-pewter-hamster,42.018910066007365,-87.68482806365806,0.22894287109375
11rvMZsJeUeacqhsEjjf9gaH247cNaDBri75JbuRgi1UL5XfumB,mammoth-cyan-parrot,41.92012919738465,-87.67944925273181,0.3981475830078125
112K1FJtooex6jmestet4T4PKxvgmD1N1EXdwes44XNyofVpe9Ee,fluffy-clay-sloth,41.931945277348,-87.64115843939105,0.26116943359375
112gPQ8rVWzDNc9HjNmaxxKu5bU6wrh8TssemUeWzGRgLRTACRZQ,wide-coal-reindeer,41.88878919063065,-87.64881816532262,0.128082275390625
11rKj759e1YWYcFoFmyB1watWxVQdWMVXPuvDffZrZUP7wbvUtU,soft-goldenrod-seahorse,42.12062933675988,-87.94767374932587,1.0
112WmWZwHeZKUjAgESUzKb7osQBuAgCM1yM47TxLCx6RmTHkYWm7,swift-turquoise-cobra,41.95566071196034,-87.81940310601478,0.30413818359375
112nGTdKztpWBpgi6sLhMUyGHNnXss5bxrDHzrh86WDcDR8AFkb7,attractive-magenta-tortoise,41.80277150707657,-87.59401364276401,0.327056884765625
11Ff4xAUL9v6i3fCqKfbsTLMb7R5Z7Y5rHzYxUqtDAFH78dfnjz,fit-powder-lynx,41.87999487849853,-87.6678754270677,0.2281036376953125
112h2HB5bVZQA73XwbENyBvwCAhUfGc8uNgcjS32qfaGogAKVnTm,shambolic-alabaster-barbel,41.82025603152737,-87.61185624102842,0.228515625
112rbV5WKYxnDZhAGQ52V8tFgMwN1gT9PGFwQ79jD5VK9RBiyWQb,eager-chili-wolf,41.985527503693426,-87.82588760725045,1.0
11JpAj9Nb3xsPPXk7AxCtorn11ddrcnN2vUHVwgD2PrmpebYcdA,active-aegean-halibut,41.80861961419865,-87.89476447830242,1.0
11L5es5CjL8R7UL2mKpdLuB6ukSjtz1KWBbrEDWf5y3U8yWrwsH,quick-lime-locust,41.88662612032804,-87.63139853913364,0.0174102783203125
11guX9xbaWiufNi86zYWCnb7j21FHpUTqBhrcg9vFrG9GmHgAbm,lively-malachite-barbel,41.88748057720509,-87.63127941448805,0.0870513916015625
11GD7rLvfvSiCtKQxLLxm1DGAL9KsZeXH6ueEGfZyWqfbGrH2sq,tricky-aquamarine-buffalo,41.965691667207004,-87.65041999269417,0.3427734375
1121SXPmBaFfAmZq7KyEE3GntbGkYaQpNHdfWrC4t8yWTimp6hQX,rich-carmine-troll,41.932119627213666,-87.64148891174139,0.0870513916015625
1124bqZWbHpivjaCo4bifv5gfu1JkNc3MnQqSo7mwj1N5WKsB7eb,skinny-lava-squid,41.87888095931609,-87.64452610499578,0.1137542724609375
11UENMiQvWi3Fzax5SfpPB6ByyJvfye7XjJA25Cg1aHAGEUkDLU,mammoth-olive-cottonmouth,41.70019040886353,-88.2143167260655,0.5
11QXVJdzuFKD9W558NWVsNAtiWLmEJjWKKg5bM5GPyg6Ta2B5Qu,micro-cinnamon-cricket,41.79290883177212,-87.75960525408045,1.0
11zRzxkPULdukTQX8T1oqKaG7QhtBbZFFCEw9qkHDVLjikohSun,mythical-inky-osprey,41.692922015794856,-87.6870237318292,1.0
112mijJP5G6AoUGU6nHrz82Zt6zhtt2bkcRRWrPipaodxyVKeUp1,round-hotpink-condor,41.96082498935138,-87.80616953277432,0.45703125
112LXK5j6nBgguNpnwTR76BSVa1dj9XDd8ExRDNTyiT3wKQffyVW,swift-pear-mule,42.1033184902254,-87.84657391991102,0.5
112pWfRX5i1zuerdgf3fAYvdChKRdMqL1NXsSjQYATinS3j4YHwh,tame-bronze-chicken,41.9666937506361,-87.8460541768451,1.0
112hDG5vkfKob7QCSACXX3o5rGk3EaFqyZuQ99rAkdL7q482W4UW,deep-tawny-robin,42.13508138960938,-87.91158552622923,1.0
11KGFWmDWWzacjL1npmC8PRcVTgGYuS5oFx9AGNotcLkYjV9SPY,melted-porcelain-platypus,41.82643828860864,-87.83627086944915,1.0
11Ju6CmxT8AiHZCs3fvNpGN6yADkfxPLxxkjcoMEDU8upuDgZbk,cheesy-brunette-beaver,42.25591206095876,-87.87626049044489,1.0
11Mqn5QV8ZCc2WiZX3qfjGpgofJDVn3T4DZEmdSQmTNdBgrp9wa,little-daffodil-llama,41.92870856741025,-87.67542425601047,0.396697998046875
112eQAnEViwUSkhhGhS8wuUMjJir8tNz8DRM8BfEbbVPeLHXfnVa,polite-sepia-badger,41.96770864640191,-87.66469453015073,0.45703125
11hRk1kY6VCwbkUdo2za9fNHXRenfrbKcGsttogrTCX7mwBRNrx,slow-pastel-donkey,41.90405717020791,-87.63274963263339,0.0726776123046875
112nnKEfkfrwgyJVbJ9kBZh4rxBFVFiNVssNZTCQ73GZgWXstt58,silly-orchid-moth,41.95540782006711,-87.65161363527722,0.364959716796875
112syZkWejaz64kA8NJKBqYrWFSM38Vd3hFkGxeNgxTMm1ss12yD,glamorous-infrared-fish,42.05744916827664,-88.08061580581992,1.0
112F3w7Budqbozf72fToEmoW6aCLGhH5shRtWrDux7uiitv3qE9c,odd-hotpink-lion,42.036083867460746,-87.71669393164204,0.45703125
1122t8hGoTXVUzGNxmuh5LkMQBNUcfPqgktiuDPVzViVzECCy22g,best-mango-guppy,41.80280870697092,-88.00308183596869,1.0
112Zvuy2FqSin3bU5unAHK2eVYLEbyahH5FcbnZRyLDyB9rJXPCv,main-goldenrod-fish,42.04193160192888,-88.12297901560316,1.0
118gb3h8MQ9xqGPUfhjFzg1pJgp6pjMoqG5CzBL2cnw5cHoxCey,custom-neon-rattlesnake,41.886158030574116,-87.69926675432438,0.45703125
11sr8nothYNmmWDopNjwgyNsUKGjSSmx7ze3dobS3n9c1zqwQFN,cuddly-sky-mustang,41.88571621698263,-87.6435751164756,0.1990814208984375
112Cen9Tv9m5MsuSiPKPqdDx2j6rkhyALijLCjVbP8b1GwJFGzNe,steep-raisin-newt,41.98768259345304,-87.83872839297753,0.5555572509765625
1128U2dfmckoqxCcffC5MYQPVQKXCthLG29LDZiz5FYBfvUSWF9i,alert-rainbow-millipede,41.90589591446419,-87.65612986030132,0.2703399658203125
112Zd4ps5zceGHsMVmhsvyKsPGGxFwrY6S4zHfyugpJh7XE2HBWU,macho-lavender-carp,41.63686621633724,-88.13166080816305,1.0
11QLhmVE2VXyDTVB9tfFgnN3kLvSLdKvUm4NnLvcK8YKww8CKbh,dancing-plastic-boa,41.96331686266959,-87.65288017481988,0.45703125
112wGfhUMY1wqx3vVouhCxtTH2ZWFJhyrnDe9HcpwmjwEsY8J8rN,clever-garnet-leopard,42.160631506973886,-87.85557458043375,1.0
112thEaVvPnRAZFi1xaXRkrnrf9cfqhoY9gskvCLwaPV9GQuFhZC,round-basil-canary,41.85863845482951,-87.92452671648489,1.0
11RFi8dfeCT35ANS7LoR6bRrHF2AuNEfEVzUJQYyq12Ab3ezCFK,generous-amethyst-mammoth,41.8567251619893,-87.62765492054052,0.22894287109375
1129RA3fDrEzotUBqjsryPxL3Pn4JJcdkYf2fPebQc6S1QeZ7iow,tame-champagne-raccoon,41.935454423021554,-87.64007843356865,0.152618408203125
11EvdoEprussZ3k2eFqXZYgtZPJoT1RziNSFiQEBYFJp4SqQtA6,teeny-cider-carp,41.858905573943176,-87.64683185621453,0.45703125
11XJEXqDKXNyV2LwjbozbyKEBiGj8cVmwTKkqmw1R7f78TW5a1s,flaky-powder-grasshopper,42.23461759794266,-88.02630606447825,1.0
112AbTFGAwgyFS4m2MmfkMLzM2AfrZpvja7bLHiCLbkgbyVuwsBo,special-menthol-moth,41.98108850703849,-87.70248685320176,0.456207275390625
112r3VQ2WQWGZH4LBfWjKR7x6g4JFdN2YPuETMutDyzLnj3a4Yok,thankful-hotpink-lion,41.98523490706469,-87.78226893606232,0.30413818359375
11UJngVX8C9i73b1SjgoiuyHvSuoLcSk7ttp4TTv6vFZD3VK1Rm,polished-khaki-rabbit,41.63989189584152,-87.93789483835108,0.5
112mmMu3ceP81sfPgBZ1s3Koz6Kzmr5ao2neyMEDCZ6ZgSwJHirs,itchy-sapphire-zebra,41.83595166961788,-87.6591082481761,0.228515625
112GbcPdkfTLTvXNVhyCuXkACMJ1p7LqZCu9JD5svZv295LEYYqE,thankful-paisley-swallow,41.712734028723204,-87.71029532644975,1.0
112VzG2aax2gUV49wrNP9vcehsYCowh6i5v6M3HBX6cjjd3HVDix,upbeat-slate-squid,41.865274222383974,-88.11160510355377,0.5
1128TkmL4KZF7u1yoYJ8k2ajBn97PTvQw3By6LTJSRGA8ZWMeiFM,cheerful-flint-tapir,41.712452961094094,-87.70245031254517,1.0
1122gBBjLwa498cmsdUUFsXAZKndvQinDBNnWv5vV2LzV1jU2DG,trendy-velvet-toad,41.96275488804716,-87.72323343728607,0.45703125
11qRtbLVMhUKRv1de6bePFevCTYGFDkK1JhXzHjR3gRq5eyggx2,decent-coffee-shell,41.850044779947915,-88.10201840377113,1.0
11xrUiYaVPsa9pP3uZBBxvmUBbbaUTx1jxmsfB5aNQgfAd8P2ue,rapid-raisin-bobcat,41.96291217918206,-87.83923292731555,1.0
11j4B39pNwSVoH4aQy9bBHjSWb8VGZfH6foxY32pxKTsXy8k7g6,oblong-neon-mandrill,42.128830251856584,-87.94563590664693,1.0
11LZxFBq4ARyGviN6sWqxAEaxqB84BFW2Y5MgWAfiPVs87x7z3b,fit-sangria-tardigrade,41.81690496616536,-87.61303237264126,0.4578704833984375
118NkFfhuP5Wd9xSvxPCifSf55EwUraKCcACMaWKA4LPa1XZdKB,mysterious-onyx-deer,41.91462366760836,-87.63789605910664,0.1507415771484375
11BV9z3hCWzJZuiHgTpyvCmUVWzAT3aUU7oiLKLrzsvaFFDB3Ho,shambolic-rainbow-vulture,42.170111366274604,-87.85322723583684,1.0
11QCVvAi3nJoPq5YQ5ivpavdB9J2MHZdvM2CfJXA5BqzsSN1yBE,short-lava-bison,41.94764704082772,-87.7253101862573,0.4578704833984375
112X3xDmLNzauCsidstbFf4APrFUum41BFoSy3JjQ1RuDVZ2rLkh,square-red-raccoon,41.92031710373847,-87.94418996210773,1.0
114c5XJPbnMSGK5ixw95niycmgVnaqtec5MdMMvoyEfPPJH4dbf,handsome-snowy-rhino,42.169370744469916,-87.98607224134169,1.0
11pMTet9zdgy2wT5rfP6YZqATLm7aPPJJ2fT5hAcZpy3jv29Byq,recumbent-bamboo-sloth,41.895325514025465,-87.66043338744072,0.3515625
1124GgvUPVuFkvdC9D5NVTUDvHQBaCw6vRkiryUSuoPhKayHTDKZ,eager-navy-swan,41.9086735063486,-87.65018930003993,0.2256927490234375
11RTnXycfTKPp6ysQ81vZ7qi5Dri8a3FC6SWWwhAQ3zBGWNVisi,nice-aegean-trout,41.91447305784482,-87.68070475614536,0.0464324951171875
112YeFVy9orLtfrSGkZdURyLnyGCGBadprn9BnJq46HQi7H4gBqP,bald-pickle-snake,42.05617868920688,-87.68642379135235,0.3801727294921875
11FLey5SFwFnx9LYuzH7zZUTBHiK2RQ5HdXmutSxfJxkg2tb9ay,micro-amber-moth,41.91832020204446,-87.68336375822912,0.1392822265625
11bWvRjh9cBf6FHLFoTZ3k2UwAdoEHXeahKdm5rTxHxvMT5jSG1,scrawny-tiger-antelope,41.86709408986234,-87.62278397270207,0.3052520751953125
11VesT4R16JMkYdXemKqf4WEvZH46TrmJKXFbDzKLAabPE1ZHdu,round-basil-lizard,42.04737397918523,-87.68811653730428,0.381561279296875
112Him7AGYDg4bniYXqhrDLFtqH2h29HekjxwTBLv9GvKnbvkDiY,puny-mango-wallaby,41.841474632199265,-87.62482406934393,0.3046875
112CR1LQ1ka73hEV7XyqESzvGc3JrwCRjPkf2yyLySCfPGLtEG11,magnificent-chrome-raven,41.91758427938447,-87.67365513939116,0.3981475830078125
11esAfRMnHrhLdRWpC1LC3tELQHkrEiqZR1mZn9CEAx3v2XHcMa,eager-chambray-pike,41.97361300951394,-87.66931887552312,0.2281036376953125
112XKSst2VwdG5K4P2auCknd9p3dWkpL9fuNBUwn1WidwzYmS1fx,huge-coal-boa,41.90694871721887,-87.8068582297162,0.45703125
1121TdCt7SRHhhbajeSNoBCdbAG96vZ6uwqk9QyPYwQEceZmTGxC,noisy-boysenberry-huskie,41.89463282971164,-87.82387807657899,0.45703125
11uvNzJg5cfbQFwiRMFpmqZBQUN8PqgiPSqcNBrQbBo1e89tDdh,alert-fossilized-urchin,41.89131343487497,-87.61479406499579,0.1450958251953125
112DKvYEqZgnRanmLJtG5SYXhDfsLMT7Xra8rUiGtnydmX6B7HD5,damaged-red-liger,41.91146773300712,-87.64601854864868,0.2256927490234375
112iLXmFjUsEApuqdQXWVfEeLcYWEyWeyx3K3GTXDHiLEFXiVFDv,rough-blue-python,41.90523810455682,-87.64889421512181,0.270843505859375
11HtoWd42neogKefeHehEzWjtTrMkM72xKSK393n1NMymNTEisE,damp-neon-sawfish,41.90844324665693,-87.65400326251925,0.270843505859375
112W2dLMuNr1fW7tJ5WMh39vAsaKcb74Mcax9hgHKzyrrsQZ5ocJ,gentle-red-alpaca,41.90623788064323,-87.64402787796017,0.169281005859375
11eQdpTA6uXYrw6xhpnkFLRpnBjvck629zAveQuDURHzJQEvn8J,damp-black-sloth,41.9111436919903,-87.6519733369371,0.2256927490234375
112QHgK29yAzsQ5SrjWxtGgFWS6ujPhy7eM1pk1V3j4jpoY2MCp2,brave-cedar-python,41.94522508110442,-87.64120126998604,0.4578704833984375
11N62wrzXcQghCD8BTbbxPGDPPFh31b7Dd7BvUyBHQooM7qo8ri,mysterious-amber-mantaray,42.02870529046629,-87.68773724103727,0.45703125
112KTRxeWsLStSNorSQgw32JktnoqgqdEyL8aZkWuSvUns6htJtM,fast-blush-mustang,41.97493920779217,-87.67280368308218,0.456207275390625
112QHTL2EUnk2zyNYJ56APUAte3QjAcrDySQ3ob5PArpyg8KcWJB,dazzling-cornflower-yak,41.84795413993569,-88.02214721672237,1.0
112uyiEn8UMgb3piRfNHsdPJp9fTdbr8JCwVGuzobmsV1E1NjZ6w,low-clay-grasshopper,42.07301226546888,-87.80313217028201,1.0
1124jNBvJ7FwwgpAGBoxt6cPTKYjsroWzVT2xydegH6oLrDje4w4,real-infrared-ferret,42.044758482994126,-87.89308028102036,1.0
112Na6VrCCceXtrbrdHUsPrAm2DNuGt4vndPGggVjgRwd7P7HvRW,sour-marigold-vulture,41.9598996858515,-87.75402369385387,0.4578704833984375
112Dbec3TviJKpArLL6BBoJV4Ho4rz6q6qHz8JWxH8rDuCqGP9KG,dizzy-misty-raccoon,41.9089988405629,-87.69351568001433,0.1824798583984375
112P17UbwLcwT8KjEe4pETMVq39qmb3ZSbDLLR6bLvXFXphDEJHy,stable-obsidian-troll,41.88279470116865,-87.65425823767629,0.1276092529296875
1161opDnL8hbEtgA21qnP6RGv81Grn4LTzhvEcgSB3FYGkdvJwt,plain-pink-sardine,41.83786419896853,-87.63264474401328,0.4578704833984375
11Rj7yw5GfptykqfmFCxr4vrcWq5mA3Tk7pWDxoLe2EqgpD52zJ,skinny-olive-woodpecker,41.837898597818196,-87.64408721233775,0.45703125
112PsrcfCgWACgjtyJQcSC1j5BDo1D4xZEfhh9WSmZLnxWdayyzP,polite-lilac-fox,41.93339028826207,-87.6491166163091,0.0580291748046875
11244ZhSvW25XxxhDiMhX1dqkZ6ucuY3jLDihVhAVaPnZ49tFSxM,shallow-concrete-piranha,41.84317964487086,-87.64193641865512,0.45703125
112NkSvkozMAEcTXu49wXo9hgsWoRZ6t6sWYQXKJ6o7Le795v1Ar,dandy-emerald-condor,41.835999248296694,-87.6343206881012,0.45703125
11ok5d1YbGPrndPUwqUyyFSw6p3F6rnshrBqnFN7UJJTyCAMTfu,cuddly-rouge-whale,41.94310257014779,-87.74532566314402,0.45703125
11v1gV3qcBBEhWActs1fC2Wy2wGMvorfHuKHq96911xJQT38GLv,tangy-neon-octopus,42.220123696978646,-87.96130464072873,1.0
112WucS7PdG1bCMyZNw9qhYuwBC3rybWVpB48fNFD6MnVYFyNf69,best-hazelnut-albatross,41.98574966799117,-87.65828342141808,0.45703125
112BCdBrhfvSvvvxGirGQ52LGDoFj8SCyPKKB8d584dTCnRmFtiK,fantastic-gingerbread-carp,41.97175720989714,-88.14854632241718,1.0
11opPY9JMQTrPm8KUS3aYFnPL2ersH531wxR9HP8VxWXjLkBUuR,trendy-pastel-boa,41.810199795177226,-87.88017763244284,1.0
112718MntYwQPqZaAsZa4evJ5zdE9deZ8xUoNS4uCvoCW55od1Vs,skinny-oily-whale,41.72397832496843,-87.65519322865005,0.456207275390625
112YPB4NxRHo92iuyjVHDwudTZJ52BAEMg7JoxVNgWZpfffaytwK,puny-burlap-puppy,41.94311159809918,-87.65923682883876,0.26068115234375
112cbE51FK9kBBZFQsudmKkh7JQoCj6cYztFfHP618vsEWHocEnj,passive-coffee-haddock,41.97479649429455,-87.65530776109522,0.228515625
11Aj4oZciG4Bz5sEu5timZkUkJ4UB6fi3HYqjWnqxYWvjf3ajXT,short-satin-woodpecker,41.96609012354038,-87.65639949147787,0.45703125
112pPfLNBMxak9RLaSPguy1XLVFobftp7o5wwXYcTFH9bq6rZvSg,eager-azure-loris,41.871089736797174,-87.62706846179007,0.1987152099609375
11Ux6kjvWTirTr8jMfBSMSv3zsj5HKRRLgGmypXD4XKH7HJR2sV,tiny-gingham-worm,41.87633080753301,-87.63236116323614,0.2270965576171875
112UBiQqFLmUSCmUWppJoQuoddijvjMtFHxMaQfRHCUfpztuuLCB,amateur-green-hippo,41.899052066575756,-87.62056646950742,0.26116943359375
11F3ZanHKntYT38Pq9QXrgukdEyEadXHez1bpkLNEFTyRbR61iL,noisy-linen-starling,41.88896844810749,-87.63969646890676,0.0640411376953125
11PX6UyLYSm8AKKAu8M3KXjryVLM2byBjziWQ7mAunBshBmzr8n,sleepy-gauze-fox,41.94546186935108,-87.65015778066456,0.3046875
112FCv8T7y5TisA868Rw3ZKJxHSWFzh9Ctkn7yCUVfE6sfd9JRYS,early-sky-llama,41.90245814603058,-87.62469988391399,0.2616424560546875
11h32ghoFrrsx9EjjVaEsKeKdNUhXr6fVkPJJCSQHDs6K1d3VCZ,original-parchment-pig,42.04016924780343,-87.85923335629398,1.0
11uF6bYyNtzGgz9CQDfKS2bzdAG8dMo3mb738KKNb8AcDaUSLsp,perfect-lava-hippo,41.88165099035649,-87.65595261911015,0.127838134765625
112m68D9CckWTqbNuQbmu2koXFEzkLCtyveGJHcb6jbcfTFVtfW9,cheery-mango-shrimp,41.89244878446289,-87.61617145363638,0.1450958251953125
11xpv5ksWZha9HQsB7YD7jvddSpN8iDaq9cDsZyuV8Do3cpVCzv,magic-mossy-antelope,41.83793676428743,-87.63818130976269,0.45703125
1122na5WLVtU1CbC64GZLoteecG9BQngbbE9tQ4MXSb4QkeXGjn1,energetic-pewter-salmon,42.02412788040803,-88.04921059845996,1.0
11wBmCKCCpPgUbQjL4gHZZ3Q8diyMwGKbwTtJeAef9TfGTuaaae,uneven-macaroon-fly,41.9007193451746,-87.62777884250622,0.027252197265625
112uBqdPig1phybjHxpX6z1ZosKj1KhCqAzZhVnZrJZyUBNSqTg7,main-pebble-coyote,42.10332993188261,-87.85321375651293,1.0
114iCEFyxT7aEqPb5dXVhZW5Sp39oxZ9pvsCRCPoVpbVbAWq7V1,feisty-lemon-aphid,42.02856678830181,-88.14859269459276,1.0
11d3UjagT36FTqUc4Pd9DLrLq2RwLxwyaPYqgPukfmvRRWDobCt,lively-nylon-rattlesnake,42.02177665995248,-88.14177638705408,1.0
11ngT5ppML6uNgTm8X16fbN2QC6gfEonu82B6NzaWQd7F36Bpru,bouncy-punch-fly,42.065589811440006,-87.82843607396684,0.8333282470703125
112NDXS569G5mwgtjYuNQJpGm6PCL9sUUQHYDc3CXnufMVMxD1LU,rapid-vinyl-tarantula,42.033043924666146,-88.06047218385632,0.5
112AnhBNDzC71f879FBuCBNb4rhJxx7aao7hFw7gpG1Cm5MKCGd8,bumpy-laurel-toad,41.91273103123395,-87.67740023537944,0.104461669921875
118Th2iYBQvZD85znGNSDmQu2KpMSzz75FLSa3gcx7AYDqv5qaw,decent-clay-boa,41.88495923213764,-87.62418829976437,0.1635284423828125
11kpT1QdkQAZJajf37x3GEsNcE1yWSZCejQSR9QtdqoF9bBQ5tq,fluffy-menthol-octopus,41.87131955821261,-87.63116996441947,0.2266845703125
11LKwpFb81XKSCBin58MiuRoeh9ceiQyDjxk9XsYHKSqHuyr1fG,flaky-ultraviolet-elephant,41.88980170011478,-87.63142838827258,0.0261688232421875
112Wg58pmdpjtvLRfFtL8pUDLECRRz9EAMMQ5zbMuXTazzquAMYi,spicy-rose-aphid,41.72169906111541,-87.71553566637691,0.5
1123LSWS1gH7o5EN3hmyndeh7zq2gzh5BhNX3VX67KSKUZTiPQCo,brilliant-pecan-crocodile,41.94910808987076,-87.64740311344232,0.3046875
112shg2aex4WcL2Lq9anvKeJ2sBwTSH26RsQ9so1Qa4RYbdkV2Ey,micro-peanut-mustang,41.87945114190017,-87.66665162652694,0.4578704833984375
112WY9DFVXEYxux5sMX6dTJbnoTQtFcDaibJiNDiDw8KdDq7rbWF,precise-menthol-llama,41.95520768454328,-87.66690237546266,0.45703125
11nWbsViwE8hnqgS8ezC5aapkYi7DpeSxEeyLHXLQcxj3N4oCtY,proper-alabaster-spider,41.8921346103444,-87.61905118912398,0.162933349609375
112u7qjWNZS3kAqhvJdQk65BcCiK1DWpmR9cVVrS48uksx6geEfP,fit-basil-dalmatian,41.84210245518454,-87.6190710103006,0.4578704833984375
112GY9Q9M4dCT5PWUeaCuMaagfProtSZEPZnkQ8jhTtTxHNRXoCN,large-corduroy-panda,41.88012093104502,-87.65498396372136,0.4578704833984375
11gfXTaAoyC6bmniwsovmN5Ke4ePLKEhKHaaZ3gG7o8HGN5VSSA,quick-blonde-cyborg,42.06566104870913,-87.756481775841,0.45703125
112vNkb7iECtpnGBe7JHV7CGisaVdk4DHSEmaY3hNdU69yBEwozA,handsome-steel-raven,41.92753152441299,-87.65927184544618,0.26446533203125
112VsoVS9G95P7zpKbTfEXtKRV5JVmCxHvbYeseJehJvESR4gcWy,fierce-amber-rook,41.808465765475304,-87.5916822064898,0.4578704833984375
112jE9xpv6FsWF3davMnx4HDZCtq8Rp52p3dKJq2KfFnWwwANwhW,spicy-dijon-camel,41.61247818329512,-87.82899580348213,1.0
11vMV5j6eXQRpBST6KmLF8RjWPDqQTs9urgji6i1U3eS5n5tr8n,alert-chartreuse-cormorant,41.85553145245319,-87.64777317692952,0.456207275390625
11TKQF8T7QthewFpF7mqsKFV4WFoByPNqzBPBpCLnNaEWzLsiCA,digital-plum-urchin,41.83709399003672,-87.70024733842982,0.456207275390625
112w9zbxXM2neck211zLb1YacwULB6wGn4uoaiUwbtZfLc9zzzWu,overt-heather-opossum,41.88934450850247,-87.71536315261108,0.45703125
112dVYpJVeevFLj2CcKDA6QXseriFmwgvJECCPZkAj1pCrW8JyqM,curly-hickory-mink,42.107808346845246,-87.83042965724923,1.0
11z5r1mRq7ovxD5EEjXp3Pd5aZaZ2X85FuSCm2TeSWnNGebKyow,smooth-cinnabar-beaver,41.884393334018014,-87.68297502857499,0.45703125
11gVDvv38M7pcCJxsvoYoqTEZhnSLD7YccrYh9HwXmKXZ9Bmqy6,mammoth-flaxen-rattlesnake,41.88231180136878,-87.73487031593841,0.45703125
11DXVPNWesJPDSitMdGZ58AzFHB6JRzN2kAtppAh2WXw9kZKqMf,soaring-purple-okapi,41.797284062899756,-87.66010736484125,0.45703125
1124UVhxxeFhaBGzxc1B3vLxS2j88CSN92zowLMgQUEfsj5HgXG3,energetic-malachite-cobra,41.87688216890253,-87.6542527149808,0.45703125
11guMPMkLNy4927cwD3NzMVbLAT21TcoitKBe8rtsJL9w9PxCxH,spicy-violet-bull,42.061873281135256,-88.07838426255289,1.0
11yfc7Uvs9AhRCazKP3EChLJzMiYQ8LwK1Aga7x3chkv72uRVhc,clean-pickle-iguana,41.85015987661197,-87.68699803950139,0.4578704833984375
112aCg8Tc7hqyQdsKJxKGsfTBCSCad9ZpPWdeeVGoK6w9hd7hfbf,sunny-rose-sardine,41.89560829804194,-87.66831005908217,0.281768798828125
11kgkYfN7mnFqZduZMVDwGEtyXqT81AZh6FtV8FSyqng2puehdY,rich-chartreuse-sidewinder,41.910756824596156,-87.80752313086018,0.456207275390625
11Ht3F3bxqmzbbGgZjafWnJUS4mKEbavVWgDuqEHmdTHENWJqhs,melted-pistachio-aphid,41.958098860855976,-87.68128911031741,0.45703125
11rJR2tnXSabmKhzbzrzLz6MJ17fqe6uRVYy3AYU9z2ztamrb4X,alert-blood-raccoon,42.10293481569001,-87.92061985651702,1.0
11N3AJ4bxPU6qsxENxSdRuYomaBKfN7Gba7KQgUa44UuAzsNh2r,acrobatic-pine-panther,41.79826521760713,-87.77749548809997,1.0
114JiB2vzUHbWwxV7UDBwhGYU3AoVhb16dEHUnaiMwDpq4vjFxg,cheery-topaz-seagull,41.83988904804902,-87.62008820530609,0.3046875
112NRmzrPCFPHha8KJSY27puiscCL8gLQV59ee9omDtAyQCrjM3n,icy-rusty-dragonfly,41.908083813732134,-87.634197539086,0.33917236328125
11218acXBdQ2phcqDrCAczukxbWbqqATvr55JENh4mWg1g8X7YMW,dandy-raspberry-baboon,41.95417748454989,-87.7545699812605,0.4578704833984375
112wCmQd1SAuDWezTdB3PyBbJUrbSF5Pr9miJj3Rv2Eyr7KVsyLW,hidden-powder-mammoth,41.97122765545594,-87.7660779739323,0.45703125
11cgoXPWswP1t3uQYCdmGmjNbvLxcQaCBwSraJ2w2tXvFuD65AF,uneven-orange-tarantula,41.80496964414505,-87.89419145100526,1.0
112ZfR48MKC21XFgUq6KP9BjrqqPqvYfBYbHUozc3FCeTftjBejN,fast-grey-gazelle,41.72006189749337,-87.71493675413429,0.5
11vB6VDpRJKxFKFCQT3tSmmRE2cNC5RTuoFb55Z5FuAX62EWEAF,savory-pine-copperhead,41.92748684595518,-87.66672651143047,0.317352294921875
11CnQAo1vw7iUNRuVBpxjufoyTcy2Zg7zNK54gGpd9qxQgT9UfS,sour-onyx-tarantula,41.800466877192655,-87.59716704743603,0.327056884765625
112ga5oNZVtTK9RbrGNJswCNUwzajKFE6J23Wzbe3fkWcgzoqK5R,early-crimson-dragon,41.86431048195369,-87.62388100242964,0.22894287109375
11pK7vp4he7o58eVUgpoAda5ph1NizfsJVf4mEcuGRGKQqLVR7R,straight-emerald-shark,41.82075972038325,-87.66793906463035,0.45703125
11tAnbYFKznTAGdnaa6cn62SgfFyBsrZS5EzUvc13bcy5rAzFM1,quiet-quartz-swift,41.812849339247265,-87.69981433161577,0.456207275390625
11Q844ejkVNb7yJyh8aawGMPigmxZiCBzAFsTAfJrpmkSHbXAo7,steep-bronze-mammoth,41.82877995906755,-87.69278175339755,0.45703125
11GgxZ1rZkmVsjgRkk4Hm74XMBoMccuxGuhQ1XCAgE8TgH4zUUS,powerful-watermelon-baboon,41.83541933337053,-87.71675888105035,0.456207275390625
11nNPKk4CptdxWnVpGHuV6kLF4YbYng9rhnYhVXPbmExLHnZZH9,acrobatic-misty-panther,41.82456121793806,-87.71141042559839,0.4578704833984375
112q9DStu4TuNpPfsm2JFTHhFsN89zoYsFB4qWkqgcrD3fXeW82L,curved-opal-lobster,41.85693856201488,-87.70931450186741,0.45703125
112JFRydGqZyz1SN5y96ySMBATRNEGBvGxC6MVy7SzvmQzvakR11,winning-cyan-hippo,41.86194767326353,-87.71051357184504,0.45703125
11sy2pgk9PbxV63R1by4Q3RHsEgm1hLUfGUN9zUFYCdtPxr5JPP,small-smoke-beetle,41.80014324188452,-87.59520746645526,0.327056884765625
11MdLpCzwRu7xXV1Kt9hjVjgJXg2erEpyBY587x34XHwP3HtHDo,precise-dijon-dragon,42.100119209309824,-87.74594898071126,0.456207275390625
11TwrNRFwqPrMVP3D8rup7LawU48deo2FRvoarY4qpFHFRK5Bft,clever-pewter-salmon,41.854077686902144,-87.6270796434851,0.45703125
112TUdGj1E65bAYd7WFSH2jLgSLLLoAcutmYLf6iGpu5SJ2sKPYB,ripe-bone-guppy,41.82210367904682,-87.70019002538866,0.45703125
112iznviLwMUsAQHaocQmcJZFAuEb1JLz1jQjdKtJYTzZGgevAsu,uneven-pink-squid,41.855833301706596,-87.67169519953006,0.456207275390625
11fEPCaKEkMwMvL1HqsL5uMQtVsjiDapDpk2jwzuKaS9WMpuodD,magic-infrared-fish,41.80736170480042,-87.69172723945907,0.45703125
112P12z9nC8JgcGPrime1ZvbDQT42pQyoJPhq541s4mHkMPmDYAk,atomic-orchid-dachshund,41.87625414828151,-87.71409364617409,0.4553680419921875
112uzJ8wSZoaDRJSjnoxVVdwzzABhiXd9HVc2tCuDgVe8G5EdAQg,energetic-cinnabar-wasp,41.85520416855321,-87.71722483469351,0.456207275390625
112S6cYmGPyptat9TJdGaCVoWzxrEcs11opKqZ2chkDMAwpodF1V,short-magenta-liger,41.80358310827564,-87.67550588750976,0.45703125
11jt66uTxnFNMS9uKM4pRLH6z3E7eD64SfEhfFyoGCa5HnUC2gA,oblong-charcoal-dragonfly,41.79879757047138,-88.07213281265206,1.0
11ULNqMR6DiEkYDaYQ6mRsKzsTmJjD938HFxm1cuakqzskJj564,furry-amber-copperhead,41.85515107054616,-87.72620169643655,0.45703125
112gY7d5mzz4wqcXbSSX3uQ2d2puvJvbcCfMthgYX7zTM8JJJNpJ,rapid-watermelon-caterpillar,41.90120653110556,-87.67119695915457,0.364959716796875
11emWVPPz8oMnE6uUpb6RKuJPRfgRQnsVmAf9uwHVFL6bBYS6St,dizzy-clay-squid,41.98350750056467,-87.7758782427767,0.4578704833984375
113TS3iHRBEoQbgrrLtpj8zMGLJ8HgQpZFYwJL9WDxSFTBU2dtw,suave-clear-ostrich,41.96944404333988,-87.77353721616296,0.45703125
112se3Lz3i2EnfSRNmRcsTbyKAcvH6m1KbnPN6bmvFrNMZ3y8iu9,long-rainbow-kitten,42.03355602042011,-87.84330815947348,1.0
1127HbyFm4APsTzM3ee5ABuqv5oeLG17izCMFqgyCSuj1xeaPdx8,passive-latte-unicorn,41.804190217083224,-87.5859122808216,0.4578704833984375
112u7iBbj734idRPjePsmhLE4AmzKNmTBjYPRKokUtUzyRiPWVdG,calm-mulberry-trout,41.7975725667488,-87.95030364288993,1.0
1172SZfRFYvY43ziGjjZkvcdW1xVNqQDDDUpqXqtzyASQKCLFKU,orbiting-mahogany-oyster,41.80440979949812,-87.88790400769344,1.0
112Qv64r6HanCZmEWV5JuUatjFCuhfn2Nk645tMajKC1VuGyeVT2,broad-walnut-baboon,41.90424834314199,-87.62693191917107,0.027252197265625
112ejxNqvcz16DV2hcEUvib9CuBWWw5Htq7cGWZzMtBJxGFGGD74,deep-malachite-falcon,41.9190118283703,-87.64331382352377,0.100311279296875
1196pYaS3D78bAynvMKizqXmatQLNgqv2Bu6Pn3YyfCYgLZotxH,custom-myrtle-turtle,41.8618632222293,-87.63024450948707,0.22894287109375
11S95pZpemGSmC3zLmz4zvieiPvd2iMn1PV9iiGZ9htHr1EyuBN,eager-midnight-sawfish,41.93411335209877,-87.64913429952622,0.0580291748046875
112KFeG3TujKGad6BsFgAK2rQ6ZW96TfwBtXjpKMYqVKFLD4RewQ,rural-hazelnut-millipede,41.868904943601585,-87.6252474621194,0.151397705078125
112njVBUjRbdGXrq7gcmX9KNTiYjLdzxTuS1kEJYRCkg7eGCHqFm,sunny-licorice-salmon,41.9088577116154,-87.63160756927685,0.3385467529296875
11F7VmGkeoB3LYZxEWGrLwdmic5Hdhbz3fvfKaUozamSuuVdKsK,glorious-crimson-cuckoo,41.81827733794841,-87.90137073344219,1.0
112tWDVPrKdsXRWsZYZ4qoTJTyUU6J5zr1eVkbcVB4MPVrabrMkQ,itchy-tangelo-mandrill,41.80882300820705,-87.88896368086037,1.0
11qh3FX3VJrNpnVzQkbK3JyxRcFCtNawUFGrqEj8RLsUcjHnAEN,powerful-charcoal-lobster,41.9532350826391,-87.64517259423044,0.152069091796875
1129zf27Yza1BqiHnvunnqbcd54nGk8DNFnj8GyRPybYvdWS83MY,damp-heather-owl,41.8833351629246,-87.69197935907437,0.45703125
11xFYLh5W64XbMvfE4jUc2uoU46PiTv6pNZRu7JkDf1DEXCUEme,main-ivory-aphid,41.991639484665875,-87.7010308397668,0.456207275390625
117ckxiLYFp7VPj2PtBKXWKsiY7zMU3atTiKrasdRC3ptUsZ6qP,bright-coconut-yak,41.979441894371384,-87.7675590369128,0.4578704833984375
11PpqLPhaYaG9Gqq5YmtwyMwzK3twXQ1pqXsHywDjHyfqLPantA,sharp-rose-mockingbird,41.88695643389529,-87.78005062544531,0.456207275390625
11gnst4stgj3UCDnrdToSBhoWCeJ8zEc5bThuyn2b9zJmi3uuee,furry-tiger-koala,41.95627592429061,-87.77793450163216,0.22894287109375
11bhEb3vbtoKbZYPWfb7zyU8MFi6SPJ6yKGJpcazTzTg3Bkg9L2,rich-felt-okapi,42.10835786621261,-88.07009406646573,1.0
1128R8nmHMEru23dZM5wdTVPB9yortNxAoMe5byp3ZfLKsLXzPh2,custom-pewter-squid,41.96875647521005,-87.77552357246776,0.4578704833984375
112bL1T8ciWP5TMd7jCFvy234FYJGc7U7859XmZz2NtWc1H4x9nZ,howling-ginger-kitten,41.909448352356925,-87.70964249333389,0.456207275390625
112UB7PwVxbjgKKzzPki5ubr2J3apzbGdevcR6TWugF7crnwvWJr,long-slate-porpoise,41.49677700712048,-87.77348810089111,1.0
112cZ3jUnGhoyz1QKEQJPCJ1f7pJ2S9ciPRSKtB5HVVMATWKfww4,sticky-bone-porpoise,41.8483605147865,-87.72760586622292,0.45703125
112uEtvVXPKxR26gpWL42kp4zhi7jd1Rk5re7cEZCozTRyK7dFCP,mini-pink-canary,41.882329182580555,-87.72388592312463,0.45703125
112fBDq58jisdQrtK1QwFeMEU77b5xoocZbydQzvHgbbTjGK9KdF,salty-mint-cat,41.79541181818451,-87.6933758233699,0.45703125
112r6nckt2nSPRTW4RWvKwn25cNGwjj7NdF2Ww6AbKyQEqHhWgCn,perfect-aquamarine-robin,41.89289836994077,-87.69408443722543,0.456207275390625
112F3BN6KFqt7dvvku5mJkAyHunK6n4mARuqPpPe5sGK4yTLQ38L,quaint-tortilla-ostrich,41.84887682411261,-87.70464162706922,0.45703125
112BDNLRsuNw7yWsfT2gPpd2mDLpBV1cX95mtVWUoYuZYr1uvUBB,radiant-lavender-huskie,41.84551409540315,-87.71525293042899,0.456207275390625
11Ru7UcA8fiKhjUmFmTiVmifr68D5dtPfC7pEtsSn4QRin77rW4,acrobatic-misty-poodle,41.81678197483937,-87.65115136112591,0.456207275390625
11MuQZkinTd8T1myiWPBLn3nuJwLawsa9cTrtCUsz5QUvuqBtUo,dancing-bamboo-cricket,41.95194144324863,-87.83267439184314,0.456207275390625
112WtmAG5FCWZviPNtMXLDhzNCjc9J9kG4jnjYKP9BN6arVj2E6h,jovial-heather-boar,41.88887482159814,-87.64183604625002,0.0426177978515625
112BgqhuZwCkkfEwr2cuEe3quCCkZoFGLgR5sEKf4yVXxuAqhat9,sweet-umber-goat,41.89439315208133,-87.63433297668088,0.072418212890625
1126BATCxM3ygde2wvykWVb7WKNGdyFNbJEpahb4dH8b2gVrodBQ,sour-orange-lemur,41.90858269527164,-87.67301108223454,0.2437591552734375
112XHrKMbV2np1gdUhbFDh7DwPP7327PPSHmzK1UzxJgriddRtB7,round-spruce-moth,41.80226192449028,-87.8977339027859,1.0
112rgxtbD2U3uTLkbVMvCuW8a6L3SBpRZiNCLgYLV5btqrXtVM6Z,virtual-merlot-cheetah,42.112445736091814,-88.01586593698208,1.0
11EhfB8fHjpKy6bca7TrdvkWetM3kzLr1AroMTJqC1wCpUyfpy7,fantastic-hemp-trout,41.86902020995564,-87.63125428884054,0.227508544921875
112s9rwvqAULzbQ4ohRjuGr65tyTnLQrUX1NLcTpMFVKY2KpqFYm,daring-vanilla-spider,41.92899525342663,-87.83896293751656,0.456207275390625
112NgXRiiHJ4KRuKcpZyiBcW6v9NpBBp9Wbts4MhprWdbc4hEszB,main-orange-canary,41.93115587856911,-87.67059237232968,0.31793212890625
112X8gjURHeeHRSMhNADN9Wmmr3pJgVHisNHvApuy2Ytkr5yiZK5,dazzling-graphite-porcupine,41.83283635672485,-87.79838038282975,0.456207275390625
112F1CtLvxHpNaZLUQnzddLDvAgAw1VK1YXodeyuy9U49AAkUfwB,clumsy-beige-bison,41.91380297433495,-87.82223063744284,0.45703125
112i1DCAgATvzeNDfDqVTeQTBsggAwd9r2AX4igrWr8imSqy8iUd,mythical-lead-flamingo,41.94151990303553,-87.64171728165172,0.152618408203125
11sMJQAhZWEFgE5tZ5h3NY3bTB7usdMvW2us7woob2YKdeCSXSn,loud-ultraviolet-pony,41.79957874554696,-88.06626283995546,1.0
11GbCpmUFNCGZ4eqLRJJ6eG3zUw7r3mTKzCYyMT5oa1wRhyEMy3,radiant-taffy-pike,41.81440208852289,-87.66457377794806,0.456207275390625
112T68JjoXED4JMT2ENvEpiPBoguPYk7DhFTArzvJiYukumRkzXP,wild-olive-rabbit,41.8186189584511,-87.6951271508517,0.45703125
11R9pua4cB4PheTdXdBBqpwNggeeWfki36rJtNrwToEHMbiPsjF,teeny-ivory-oyster,41.838317907264,-87.70739374961276,0.4578704833984375
117NvYbh3NRqT1VHKHuKGRcLgSpj9MqTTTb5tPuPT8p4NddSbjz,funny-butter-tiger,41.8210141437501,-87.68500711029289,0.45703125
11Xw7D8RvYeg6ZkXAhSjkRhfHUNx7tm2AGsdSVBRKeFASaTb1kq,young-linen-badger,41.86658268415779,-87.71235468881504,0.45703125
11ib4BNE3FnrVM8CJSAoXkF1AW6jS1vAen7pryaDXBu51Rn7eZ8,flaky-wool-lynx,41.90963176465964,-87.72604153022328,0.228515625
11FKf9YY5tNSYiJsbLPDTdzNmKehLfXUK5Su49TbghyGeki4Dbb,tame-carrot-shetland,41.8758890303648,-87.73079214283243,0.456207275390625
112dNeDbqGmicXUme3t3FC2L94Bt6L43aCVh9HF8SNRNaJyeEZ83,bumpy-lead-cod,41.89124155182176,-87.61716727205005,0.145355224609375
11U2FfYSQKDrmWsheU8rBAHWprMKPZUgGoFo7DfcT6dh7Xrqa9M,fit-ginger-sloth,41.77681836215357,-87.76957564915968,1.0
11s6HMzjLFvqvoxH7tEtybnCaEezWsnjqz7f2R2qj8Q8wW2osdQ,brave-cobalt-seahorse,41.94041653709866,-87.651805565066,0.2616424560546875
112rty6LWjqZbvqzyRrYWQAuif8JqGAXt7ZJshrpN6F2vb6cuirw,expert-marigold-turkey,41.946771732762755,-87.65186814311438,0.3052520751953125
1126S8fYYT1tFuTFpXqaihq1XsGeDCVZTuxMoM3G6mRiX1NuRBQg,micro-bamboo-canary,41.91130261849591,-87.62677491985329,0.076171875
112KVYJygDVytj5wkpNheAx8uCrGzagKvhCZrEaFYQp1gB9ECGZA,bumpy-rainbow-crab,41.88563524452044,-87.62527534711924,0.081756591796875
112oYSfUhEsHWM9fuDVf2cSn4u6KRLggpiSoWwmbfrayD3R2uCCE,prehistoric-macaroon-anteater,41.925365287798556,-87.68629031566648,0.3046875
112vvSrNAwJRSmR54aqFLEhbr6cy6T4Ufuja4VWVrxvkUAUxL2yG,flaky-mossy-poodle,41.90381454857624,-87.6253378522944,0.054412841796875
11U8w2CsaDwdWCyNV15jV37NJZNF4oukQrqaoUc3B7sksDvLzwU,happy-lilac-crane,41.737594575663444,-88.31861514898736,1.0
112aT4VopBuiZj6LNf77H36F57yJaqKXdaoWNesg3QWBuuK2zp2C,interesting-magenta-platypus,41.805665879628116,-87.69526263812149,0.456207275390625
112g1iBoX7S5Hmjd4W2Z5BE4bjUap39LvvwgHGmCv8Bp9hx76Uj4,wobbly-ebony-capybara,41.910629550069906,-87.69719021096033,0.45703125
112uo9233CMYExem7AMHfsQF6bMWxUSFUvGsYJRFWZFKcxnr9Pvc,magic-rosewood-alpaca,41.901916311749844,-87.73962343223562,0.45703125
11HL2ARYdczWqStbPUe6yHLYXrviwf5GUQaWJph9vbv8a4pG4Rs,fancy-neon-koala,41.88422419134352,-87.62878003969432,0.397430419921875
11jh8cFHsSE4Q9nHDgPg5GFnkkFAGNLRrxhLtcRnzatae9ttzCS,perfect-candy-cottonmouth,41.807678045034564,-88.06839108918506,1.0
112SXV2xL3H2qw7z1XhU4BtZyWWTHN6o8Kc45VRvtGEbsRAmVYaL,bent-inky-horse,41.799697318817756,-88.05447415307444,1.0
11xp4PxG1X9gQRFBPMo3nTHCuwS36hHzF41Eozy1jJifFbC9zD6,early-slate-locust,41.9015718464419,-87.70706467901316,0.456207275390625
112G3YuJVfs3HBmq5nuUNabJtqgM2f5WQyewuASHGS5MwViHqgJ8,sour-scarlet-viper,41.86667194043902,-87.70537714211572,0.45703125
11ZgqV4VCYuuu5NzCEA6WJbaTiYajdwAdjHKmTbUGCRq3Yte8w7,powerful-metal-ape,41.905395871321964,-87.6967308068922,0.4578704833984375
11v6ANNUHHFbMvm5GsD62Jt17pFK2zsGejxwDpV8xiRjmdrxRf2,rich-topaz-ladybug,41.891048305308864,-87.66256275629706,0.1878509521484375
112cRnJehMVS7yLdqkaT2pFeoWmczyvUYrZDL851Y7SyXcpvVzMt,old-hotpink-peacock,41.89079608037723,-87.68043578876967,0.45703125
112PqZ9BRECGaLHjw1Y4EpCeva439Hf88Dwit8vn4mUJcCbgRYtg,main-brunette-wolverine,41.87965849237168,-87.64831574470813,0.1137542724609375
11mJ5iGRu4KnVXTzap327Ta7R5xwXsaLPULJ4S4VoQq7uF6h9Hs,spicy-rainbow-jay,42.11208729503661,-87.95568491232723,1.0
112m5z3tc59yqVpYMrBBBigfPKsYSwnTbDr1JC18bmVrAXotoKD1,clumsy-spruce-dolphin,41.93801667789342,-87.65556876790149,0.26116943359375
11Eeh77GQV8TgGUAyp9izTDAuPw42xqVabrRn6TA16CVhG2YiUQ,hollow-fiery-blackbird,41.907652826170725,-87.66912192042385,0.366302490234375
112ZrJfC5JyjaKjkFgkVS1NrazBsqNRDWJtTRpxSauwZQXyCe6Yk,dry-infrared-haddock,41.88346259860592,-87.65050366609356,0.042694091796875
11hESCY6zECdYjtK7Y2MVNvpZKDYsvFj5X9WmT2kvhdf98WSCWh,powerful-violet-kestrel,41.948121092911194,-87.64765873524884,0.3046875
1121bNZ8FmFsNpxhdp4sC4Y2he3eDbCkk1D6CyaeqdRLiQvG28Ye,fancy-laurel-gecko,41.81848305522433,-87.89073661336695,1.0
115nEnCFqh1293qCCLHJwoDiVcHkRxcQb6UNxNx4CWDPf6GNAe5,short-seafoam-bee,42.143389544097204,-87.95675378733512,1.0
11EKgukuBciFXMHZo7bmqvAGwqD8KewMsLuhdjw6rs89YcQjCJT,dandy-syrup-leopard,41.91019455037591,-87.68283302336523,0.365631103515625
112Q6zZDXwKPqFoY53WcuSHiPLvcCUfPyVZKPKNyeAXhfpkcUDcm,broad-merlot-sealion,42.0500586402834,-87.9991841268304,1.0
11BAFb584zRpNZtKP89kcRdhGruCjfmVYfXhJRdEV7eNa62sr9h,cuddly-pine-poodle,41.983140932551635,-87.83957799812165,0.5555572509765625
112f5BwBCmWAaX1mLybLDam6EjajeGw81c6TbkEfHyxtGpZR1ojG,round-lilac-shetland,41.750232302708646,-87.61326789175867,0.456207275390625
112JXFkpD7TrHEfmuqTKgLG5KMW4sKE4wqScL3ygSwwCiL1TCGUN,sticky-midnight-tapir,41.50468421801628,-88.21954175701899,1.0
11s2bcDBYLJstctZJHcimyDWbahvCE7Ho5EaNhSFaDhmE94o4rU,gorgeous-raisin-urchin,41.79285119611612,-87.61627411889457,0.1086273193359375
112PAabgvnxQFboeR5XGB2z4vNidmCMSFvwBgapgw1tu8UZGQity,dapper-ginger-stallion,41.79285119611612,-87.61627411889457,0.1086273193359375
11a8gGB7ANrXdMNr4Zjpgbq89tBnvABCMXKUnXz1gdxN7rS4EFk,huge-syrup-goat,41.894170024035596,-87.72568442322263,0.45703125
11bQLL8LZnxCKPJCUYYbLRNKLWfhWzpPSKzHDeUkY1ciZjnhEaQ,damaged-indigo-alpaca,41.79285119611612,-87.61627411889457,0.1090240478515625
11enggkzCMLxTXhKYmbwdKEifALwaSWDcqDLorhq6BLUt3bouGP,best-mango-rooster,41.80722790579592,-88.05667436710372,1.0
112hWUe2qy3xSbe5k3U7GFJ8YeVo39S5atXGR6MJEf73TnY4nycp,square-mulberry-swift,41.883141887820464,-87.71054780597794,0.45703125
11cw12ymmAVAqN9rKBjCkqoySbAnkQNeYtsdDDosGMopxcaxhiC,spicy-jade-condor,41.86288606665548,-87.72407729067076,0.456207275390625
11xu2Lao4pHxyCboqkFJ2Fq6pL6BzU1v3sjpAVUn8FnJ8gWMqac,attractive-sapphire-llama,41.89026359379531,-87.65392947584691,0.1761016845703125
11obBK8m23XPjPpSA35TnKfCsiwszb4i9oziQAa5kmZTC1hzMG4,faithful-magenta-kestrel,41.903823979722524,-87.72081393590614,0.45703125
115a9WwMcc9fveYrffwttTrN8eu3rzdrv3oNEFUQH1EX2TUUDgB,daring-black-turtle,41.900367096748504,-87.73203923756307,0.45703125
118s6wx2NRpTEwF8SEVBeiZo79PkXHFT3jDPfJv3txXEEKiRu12,proper-peach-quail,41.90578524438638,-87.72975981420554,0.456207275390625
112uDPrezc2Rc446WineEsGDpGbxMSpHPWcY4r61pwGYqkqC5JUJ,powerful-raisin-bull,41.8999830285694,-87.64820690214671,0.23480224609375
11fUEATvezA3ThuLPhhP827z5L5dgqEnBxLHdSRNiGsK9em1uLs,bubbly-shadow-canary,41.87701861734715,-87.7209550591342,0.456207275390625
11JX7v5w5JcRqKi2uSFqYdNvRiL5u5Zpbf8efVNDH7nCthRg49S,straight-ivory-gazelle,41.93479698353177,-87.71560818658429,0.456207275390625
1123L6zhq9fUBGMS7MWJCV3jJBvKRyCPR9TjrbA2Pmu4iB4mKLyb,jolly-aqua-dog,42.194091072104605,-87.81540985913946,1.0
117wPmvLQU64ye5S7FN7ZdYwQB854BCpQ4rf2hDMhvi2ucR4cvu,tangy-dijon-gorilla,41.90428669997075,-87.62893572681752,0.10882568359375
112q3NKvNCpw5WX5kaLpCPNWWuEDF8hvpNBGaMXGphvWJwF1xDqo,little-purple-dalmatian,41.99027314886961,-87.72749686626706,0.3046875
11DedoN66vG1emW48VDaf1iVRrsDCDYWwEimyYmn6JpBgpdeqfq,early-pearl-duck,41.857544883789714,-87.62399855621392,0.228515625
112HYQTcqgmmVVX53b6T4P3eZvJC6UxUWtW2DEZoAMzfEpsURYcb,short-butter-crane,41.89855512947699,-87.62619001962527,0.130340576171875
115dwahtVCL1LLYocVmZKQVFMr5hJZiioDBdxU7Lu3iY1UgtrAR,faithful-burgundy-finch,41.9266007658362,-87.6903752862859,0.4578704833984375
11c5TRoCvwEXseh55c3u2hSzzeLv3zNyGRa99eAQvBFTXATkYv8,virtual-velvet-elephant,42.10298927636277,-87.9146843109126,1.0
112pTrnibNbJUjBjCQmAcSEqL4fNcEKuAK8XXtfjnhxsBLGNNMQk,digital-iris-moth,41.740523180718164,-87.98842569713722,1.0
11Cw5NXgC3nqugJ6vXxnptSP4cs6cApqtky1Gz8KCqXmoEqpuVy,straight-pecan-condor,42.059915867049064,-87.83121816319306,0.8333282470703125
1126syYxzD8EQk7Hfv7UtZezU4nZJpPwZTbqWpD7iHgmf9zRQken,savory-aqua-loris,41.8856883283875,-87.80607992965079,0.152069091796875
11kb3ARaWBkSdhHX726seaLuGiNk6DvH5iaJjRPJ7UMAXmAcqQY,able-mossy-albatross,41.74003621804106,-88.1353491537468,0.5
11fHPa8aWSpqfFLZ7s3unuZNaXUkGV3UWPqA7TcYqHu2Bg8R7fU,acidic-carob-troll,42.008551514314625,-87.82999236202889,1.0
11aNc67kTKSoRFSYcDBMxijQRdV4kKkd57nXjsuhDtRGoQbCB7Q,fierce-metal-chipmunk,41.98507513189379,-87.69069242197497,0.45703125
112iLLMKtQLQ4JMkmKBBruJU1ACTt6dMfdW2RNcM9XTtcMiu8esH,genuine-navy-piranha,41.93535737556207,-87.67237488123413,0.397430419921875
119LcgU4LHnrGRz6dPKxzZSysa4aTPxpLbHf1rvBdCmvg7ECRdc,tangy-tartan-giraffe,41.87950543932734,-87.99773021843924,0.5
112EiQCWWuLk52rvDchL6AcNzY7LAZbCAQiFp44TB2opvN6uhDnq,calm-ruby-shetland,42.030669507148104,-88.05143388606544,1.0
11yxShvb749aGiGkFPjVA3gvA8hMTvepEdd76b5HjKEycdHmbzX,recumbent-iron-jaguar,42.24088356149521,-87.83070305995435,1.0
112Csk6CXHJvy7NaCEfZ2NFCMXb1mXFRJJd1kDQQGhgpyk51jDrU,amusing-topaz-rat,42.06232334044382,-87.83717296506423,0.8333282470703125
11N6Ufhd8QAcRNjGittR3YjVXb3GD6FGxm3QuGDVuV8NzGDfFLW,plain-cloud-ant,42.01551588138849,-87.82715653316886,1.0
11XwyVCGPp3dzsar3nSXUoVTn5YPdD7vS4Hui3R3gDSTU5b3Kvs,basic-pistachio-cougar,41.91950133689371,-87.6629873519357,0.397430419921875
11GffUCty7SwYeUMwkCDS262ZnJkVtgipTmMPA4e9yWPQ99Prqr,tangy-sapphire-osprey,42.12762521739884,-87.91388628595946,1.0
11JPrqM2pB8oxe3Q6QmwhkbhniZfz3CSktUWQ2U6pwjswsZ8TeR,strong-stone-hippo,41.893609794592344,-87.77548378941711,0.456207275390625
112qdqXgsdqTFuuVnee9FhkikpxL4j9Qsh8Deg335i9FkZRv6UAk,quiet-marmalade-barbel,42.01389676196501,-87.85436436930613,1.0
11258xw4dvqXYtN1SjjRY7iox7CD7chBf1Nb3fFRfnAvrqHTyF5g,tricky-cornflower-viper,41.98832351970134,-88.1835267819768,1.0
11LGHGbwv2cDQedfLeoFBRRYeMgKPBkFJv4gvyps7f1EeVn9u5z,bitter-rusty-wombat,41.73593382457066,-88.13775550693755,1.0
11gRck3Hvupa4dxJkSLKEaTNv9h2u73REi9Z7cqJFsf1cw6S7Vt,soaring-vanilla-oyster,41.90471605463458,-87.70993973897362,0.4578704833984375
11w3YVBPRAFbXjN1PQNQHFXMxsdXFDiBbzfVroYd769W4a9B6Fc,young-coffee-starfish,42.25314391150187,-87.82368698583991,1.0
112e4kJnW87NyfyKJKt5e41NgMMxLyHBw7C4KLuRpqbruwpN9cY9,round-chartreuse-manatee,41.906982457032285,-87.62844148374329,0.05450439453125
11js2CgaZhoah4qTwNLCjSVkHEdsTyNJMkoNJioWRAtsGw7ANz4,able-arctic-worm,41.89056254773877,-87.6413648397455,0.0639190673828125
112tP9LBNufvTQhZHQ3qWLyJG4ejzQAqbfzCY3tDXzeNvnJcKk7e,cool-seafoam-kestrel,41.93334330942896,-87.65018740248004,0.1744232177734375
11F7C46XzCW3wzzSU9inCRh7Fp9wWYzdRtjLog4xAb4brze9M99,digital-cream-kestrel,42.032013293252376,-88.04037245345395,1.0
112oR2UV6giPjN63gBgaaxo5AcMVyNUZhWxaMcehWgqdePtQi7iB,brave-emerald-chameleon,42.09845576533365,-87.92880427362394,1.0
114iGjWhH7372HJ1hXo7NnBgC9WQja9mj4Ato2AUVqrWKczDeec,merry-mauve-wolverine,41.909397311041005,-87.64228806780864,0.226104736328125
112aFZ3VVmoDw3segXsBgmCKAQb8XVdk9Ug168j1rTKbUs3p9rgN,hot-canvas-snake,42.05628582517917,-87.71805922697011,0.45703125
11w854CT1ENK3PenoDj26NdK2ZiVsQDpkKbq53f5SriapnuTQKx,real-chiffon-armadillo,41.888127170646634,-87.66533058239953,0.3522186279296875
11ZcVB5dQU6p18bg8umx28DaRhoTYDeBcB9eJNonir47zKNUai6,oblong-porcelain-crab,41.90980029893664,-87.72790888972865,0.22894287109375
1123TFY2ZPBK43DBYfC5vyaCdEra9pgozrtBn1VbTZqi52ogrHHs,massive-opaque-shrimp,41.9412183191942,-87.6829154071418,0.456207275390625
112NJPszPbm8AMkmNtYGVdfgsWZBLu7ftYK3b75i7y1oEejNpeYA,bright-mocha-koala,41.75319888137856,-88.33817994946753,1.0
119o92X5w8VDtffqFFVjrwmEvh8zvigyR8DiJMErZq9VRrd7YTG,curly-ginger-lynx,41.99891042546648,-87.6776495902876,0.456207275390625
11eCytrMVRhMaRsxDpEjaFcpq4tdBr5AUy6BSN6kjRRJNzcZxqU,urban-pewter-raccoon,42.05338610237572,-87.83411528152457,0.8333282470703125
112Z7op2Dq8HfzJFYMsAnmvgMRRtoB2Ha6uY6AhZbUnA16YosiFJ,main-orange-mule,41.752728214531174,-88.31415096715034,1.0
11KCK2f2QVYZbiUvQaKBm45uyv7pLyXNDB4Nv69uFbJhmVzjmw2,curved-burlap-skunk,42.261315142238765,-87.83912050891624,1.0
1126nvQadYAx6tW4rCoBMxMgLBTviVrvgET3bao1QFvR4W78CTjH,rhythmic-garnet-snail,41.9154759231228,-87.68222066616563,0.1392822265625
11HTxJcoDZK9H87DHcxEPVhxZR3Nm6pVpavSXrrkuZaiSQiq2Ym,overt-rose-skunk,41.79220874534015,-88.27337020819203,1.0
11iGYomoSSPd2zWR81KoHVsq39BJZ3fo6jWXiec3eaAeFLey9um,mysterious-spruce-meerkat,41.895493835011514,-87.62425389184362,0.0654144287109375
11kRy5jVkD59oi6y6pfeYvGy6Jbkrgxj9ccoLMyhmSWPwkjS8fg,soaring-maroon-parakeet,42.25962720759136,-87.85112976053382,1.0
11kLpWAZ3frDeNetVpaj55QuC3R62rHf4p54BUTMXE8Z29HXXbj,glorious-golden-mockingbird,42.08511938377713,-88.06020346072462,1.0
1121Hcr5gardPkL9iHKQ6gSS3ayjZre2zgQ713dVnyW1uVMsC9Dd,damaged-shadow-millipede,41.995436851616915,-87.84478103928582,1.0
11wnPMVWBhBbqAbPqf4zXz3e2DTY98vQrFsNoPs8BtXDWT5wXgq,howling-alabaster-panda,42.00665430920254,-87.8556946823113,1.0
112m3dW4cTjGWWhr24ePYjEXvsJjeJvFVhYnhttGkQDDYPf4drt7,sunny-misty-otter,41.95906679298427,-87.69996449299023,0.4578704833984375
11U7TRfbeEyHi9Hn4WUH9Nn52aQA1E72GASBFAfvG9ubT1ohX6w,tart-laurel-seagull,41.876766805691005,-87.9944332943831,0.5
112BKFAecqqm4ZC9iohMAhGNsbZaxXa3fkGWRpkfPLLLbsFAXD8R,striped-fleece-crab,41.885548915644996,-87.65600192268666,0.128082275390625
11NPkDEHy1N5y5G7BMsMW2dFaebcxhBYpbTY2opmEh2WwKNP57V,upbeat-fossilized-giraffe,41.80452029609025,-87.76061357077609,0.5
11osKEVJjEJk74qRHmJ62odrgpvM8XU46aAffTmiGignfjmrRdv,creamy-topaz-worm,41.74607940652492,-87.97969672527888,1.0
112gFMhspP7uvi8o6TwmHCPfST7zocuQgULUpuBvp54RxEcNgnTY,interesting-sable-baboon,41.733669513487015,-87.9792125285844,1.0
11obyGhiwiTQo6feWSoKCqhECGw3U1DbJaK9HncpVXhJ9iw1isv,glamorous-midnight-fly,41.92745859193112,-87.6616465842348,0.26544189453125
112GqUAVQM2AWQGf92vS3dPBfaeAMsoqWdYm4jRDCpwwJ4CnqvDJ,raspy-sage-vulture,41.914746789569705,-87.64083409389322,0.1504669189453125
112H81KHcv7md38TJ1pjh8vZwmCc54H3tU5wrUyZgtQVWLqXyXUb,amusing-plum-squid,42.02075599804365,-88.05852251532248,1.0
112BZ8efJhvbQHEqgGhdjtQCKoeZcShf7LrJSXPMfse2NYppEbVs,decent-magenta-orangutan,41.74948943789309,-87.98736513513839,1.0
112EK9FgnXZzSp8G49wVhfcy3hsKpG8Dhh4fozgHD2aW7xBdPmpd,tricky-pine-mule,42.25909872189788,-87.83370843048395,1.0
112jnmc29nwka65skRY4D7o7yYXZ62y8PDBRDvU8ERz1F65LRGow,muscular-blood-porcupine,41.9540387169043,-87.64766342129522,0.365631103515625
112Jf9Qdj9UTe4Q2T2pTeHFtiacwc8adQ89YbgqjhYEdjy4SLPg3,acrobatic-syrup-eagle,41.92677330512858,-87.66363334890026,0.1592559814453125
11ebvoakVmbseWcLYxpAzscvsCciXALaMZf3Ww1WTy6bV1Rsf7E,elegant-misty-mantaray,41.98653396404888,-87.84527173730147,0.5555572509765625
112QsKN5pETQFQz3eThmnciqvFNq4HDtzhs5a5dpfdYEHvjsyQGY,tall-mandarin-deer,41.983112930413334,-87.84088301045547,0.5555572509765625
11gcLQwmzipCs2fc2zwLUMMkEApMqH3aFjYGHEuW6BuTCAHxqmW,gentle-amber-armadillo,41.98075490806448,-87.84356691255358,0.5555572509765625
